ORBCOMM FM103 [+]       
1 40091U 14040F   23224.64929176  .00000705  00000+0  19700-3 0  9991
2 40091  47.0072 316.9770 0000977  60.2536 299.8445 14.55818191482800
ORBCOMM FM114 [+]       
1 41179U 15081A   23224.41102888 -.00000141  00000+0  59272-5 0  9998
2 41179  47.0001 227.4799 0000841 160.0373 200.0545 14.55821896406127
ORBCOMM FM119 [-]       
1 41180U 15081B   23224.78897229  .00000751  00000+0  20751-3 0  9994
2 41180  47.0004 134.8937 0001517 226.2080 133.8680 14.55812069407382
ORBCOMM FM105 [-]       
1 41181U 15081C   23224.85628576  .00000300  00000+0  13277-3 0  9995
2 41181  47.0020  77.0312 0001833 194.4078 165.6749 14.43971261403360
ORBCOMM FM110 [+]       
1 41182U 15081D   23224.38769525  .00000656  00000+0  18598-3 0  9999
2 41182  46.9996 227.0201 0002830 308.6298  51.4333 14.55821791406129
ORBCOMM FM118 [+]       
1 41183U 15081E   23224.43395355  .00000483  00000+0  14696-3 0  9995
2 41183  47.0021 227.0573 0003123 304.8376  55.2214 14.55826415406133
ORBCOMM FM112 [+]       
1 41184U 15081F   23224.76659286  .00001041  00000+0  27351-3 0  9991
2 41184  46.9988 134.2625 0001517 205.2805 154.8006 14.55726880407374
ORBCOMM FM113 [+]       
1 41185U 15081G   23224.05750501  .00000894  00000+0  23979-3 0  9993
2 41185  47.0010 137.8199 0001000 230.5719 129.5077 14.55818436407275
